CUBESAT XI-V            
1 28895U 05043F   26065.38576487  .00002828  00000+0  45496-3 0  9991
2 28895  98.2825 218.9473 0014555 167.7954 192.3608 14.72302296 86628
CLOUDSAT                
1 29107U 06016A   26065.81916972  .00001703  00000+0  20096-3 0  9994
2 29107  98.4057  97.3877 0004231 313.2827  46.8033 14.86163246 59303
CALIPSO                 
1 29108U 06016B   26065.80283298  .00001634  00000+0  28682-3 0  9994
2 29108  98.4532  77.9636 0000932 103.5606 256.5702 14.69127769 58020
HINODE (SOLAR-B)        
1 29479U 06041A   26065.50531629  .00000979  00000+0  17725-3 0  9991
2 29479  98.0626  83.1473 0016204 252.4690 107.4745 14.68468203 39801
METOP-A                 
1 29499U 06044A   26065.82996882  .00002492  00000+0  29175-3 0  9991
2 29499  98.3246 169.4069 0175620  36.0723 122.6408 14.75565948 10350
SHIJIAN-6 02B (SJ-6 02B)
1 29506U 06046B   26065.83145100  .00002640  00000+0  21124-3 0  9993
2 29506  97.7053  95.5886 0014136  52.3971 307.8533 15.00981460 55382
DMSP 5D-3 F17 (USA 191) 
1 29522U 06050A   26065.77878656  .00000251  00000+0  15205-3 0  9997
2 29522  98.7414  74.4331 0009932 355.3199   4.7880 14.14962458997933
LAPAN-TUBSAT            
1 29709U 07001A   26065.82943105  .00001129  00000+0  13623-3 0  9996
2 29709  98.1331  62.7650 0012621 152.5848 207.6035 14.85827373 35958
HAIYANG-1B              
1 31113U 07010A   26065.43122782  .00000161  00000+0  76995-4 0  9992
2 31113  98.3426  51.3029 0014159 141.8438 218.3751 14.30998233985935
BEIDOU-2 M1             
1 31115U 07011A   26060.68693770  .00000005  00000+0  00000+0 0  9993
2 31115  50.9713 222.8490 0002467  35.1806 324.7821  1.77349244 74242
CAPE-1                  
1 31130U 07012P   26065.83925638  .00003334  00000+0  60569-3 0  9992
2 31130  98.4369  37.6683 0084745  31.4458 329.1771 14.64568291  3374
CBERS 2B                
1 32062U 07042A   26065.37880936  .00000462  00000+0  15502-3 0  9996
2 32062  98.3825  11.8837 0029877 285.1718 186.7549 14.41414711969870
COSMO-SKYMED 2          
1 32376U 07059A   26065.81507222  .00000818  00000+0  10923-3 0  9992
2 32376  97.8862 250.8927 0001293  83.4319 276.7042 14.82161869986837
CARTOSAT-2A             
1 32783U 08021A   26065.83227250  .00001064  00000+0  15028-3 0  9991
2 32783  97.7778 117.9746 0013299  84.9445 275.3285 14.79094090963679
CUTE-1.7+APD II (CO-65) 
1 32785U 08021C   26065.86096254  .00009307  00000+0  60286-3 0  9998
2 32785  97.8209  45.2818 0010038  28.8695 331.3086 15.08325396969763
SEEDS II (CO-66)        
1 32791U 08021J   26065.45257361  .00023871  00000+0  85099-3 0  9999
2 32791  97.7520  58.7481 0001969   9.7725 350.3551 15.28908488971576
YUBILEINY (RS30)        
1 32953U 08025A   26065.89110516  .00000039  00000+0  20613-3 0  9993
2 32953  82.4989  59.0637 0019426 171.3440 188.7979 12.43176073806980
