[{"OBJECT_NAME":"CUBESAT XI-V","OBJECT_ID":"2005-043F","EPOCH":"2026-03-06T09:15:30.084768","MEAN_MOTION":14.72302296,"ECCENTRICITY":0.00145559,"INCLINATION":98.2825,"RA_OF_ASC_NODE":218.9473,"ARG_OF_PERICENTER":167.7954,"MEAN_ANOMALY":192.3608,"EPHEMERIS_TYPE":0,"CLASSIFICATION_TYPE":"U","NORAD_CAT_ID":28895,"ELEMENT_SET_NO":999,"REV_AT_EPOCH":8662,"BSTAR":0.00045496352,"MEAN_MOTION_DOT":2.828e-5,"MEAN_MOTION_DDOT":0},{"OBJECT_NAME":"CLOUDSAT","OBJECT_ID":"2006-016A","EPOCH":"2026-03-06T19:39:36.263808","MEAN_MOTION":14.86163246,"ECCENTRICITY":0.0004231,"INCLINATION":98.4057,"RA_OF_ASC_NODE":97.3877,"ARG_OF_PERICENTER":313.2827,"MEAN_ANOMALY":46.8033,"EPHEMERIS_TYPE":0,"CLASSIFICATION_TYPE":"U","NORAD_CAT_ID":29107,"ELEMENT_SET_NO":999,"REV_AT_EPOCH":5930,"BSTAR":0.00020096,"MEAN_MOTION_DOT":1.703e-5,"MEAN_MOTION_DDOT":0},{"OBJECT_NAME":"CALIPSO","OBJECT_ID":"2006-016B","EPOCH":"2026-03-06T19:16:04.769472","MEAN_MOTION":14.69127769,"ECCENTRICITY":9.32e-5,"INCLINATION":98.4532,"RA_OF_ASC_NODE":77.9636,"ARG_OF_PERICENTER":103.5606,"MEAN_ANOMALY":256.5702,"EPHEMERIS_TYPE":0,"CLASSIFICATION_TYPE":"U","NORAD_CAT_ID":29108,"ELEMENT_SET_NO":999,"REV_AT_EPOCH":5802,"BSTAR":0.00028682,"MEAN_MOTION_DOT":1.634e-5,"MEAN_MOTION_DDOT":0},{"OBJECT_NAME":"HINODE (SOLAR-B)","OBJECT_ID":"2006-041A","EPOCH":"2026-03-06T12:07:39.327456","MEAN_MOTION":14.68468203,"ECCENTRICITY":0.00162043,"INCLINATION":98.0626,"RA_OF_ASC_NODE":83.1473,"ARG_OF_PERICENTER":252.469,"MEAN_ANOMALY":107.4745,"EPHEMERIS_TYPE":0,"CLASSIFICATION_TYPE":"U","NORAD_CAT_ID":29479,"ELEMENT_SET_NO":999,"REV_AT_EPOCH":3980,"BSTAR":0.00017724955,"MEAN_MOTION_DOT":9.79e-6,"MEAN_MOTION_DDOT":0},{"OBJECT_NAME":"METOP-A","OBJECT_ID":"2006-044A","EPOCH":"2026-03-06T19:55:09.306048","MEAN_MOTION":14.75565948,"ECCENTRICITY":0.017562,"INCLINATION":98.3246,"RA_OF_ASC_NODE":169.4069,"ARG_OF_PERICENTER":36.0723,"MEAN_ANOMALY":122.6408,"EPHEMERIS_TYPE":0,"CLASSIFICATION_TYPE":"U","NORAD_CAT_ID":29499,"ELEMENT_SET_NO":999,"REV_AT_EPOCH":1035,"BSTAR":0.00029175,"MEAN_MOTION_DOT":2.492e-5,"MEAN_MOTION_DDOT":0},{"OBJECT_NAME":"SHIJIAN-6 02B (SJ-6 02B)","OBJECT_ID":"2006-046B","EPOCH":"2026-03-06T19:57:17.366400","MEAN_MOTION":15.0098146,"ECCENTRICITY":0.0014136,"INCLINATION":97.7053,"RA_OF_ASC_NODE":95.5886,"ARG_OF_PERICENTER":52.3971,"MEAN_ANOMALY":307.8533,"EPHEMERIS_TYPE":0,"CLASSIFICATION_TYPE":"U","NORAD_CAT_ID":29506,"ELEMENT_SET_NO":999,"REV_AT_EPOCH":5538,"BSTAR":0.00021124,"MEAN_MOTION_DOT":2.64e-5,"MEAN_MOTION_DDOT":0},{"OBJECT_NAME":"DMSP 5D-3 F17 (USA 191)","OBJECT_ID":"2006-050A","EPOCH":"2026-03-06T18:41:27.158784","MEAN_MOTION":14.14962458,"ECCENTRICITY":0.0009932,"INCLINATION":98.7414,"RA_OF_ASC_NODE":74.4331,"ARG_OF_PERICENTER":355.3199,"MEAN_ANOMALY":4.788,"EPHEMERIS_TYPE":0,"CLASSIFICATION_TYPE":"U","NORAD_CAT_ID":29522,"ELEMENT_SET_NO":999,"REV_AT_EPOCH":99793,"BSTAR":0.00015205,"MEAN_MOTION_DOT":2.51e-6,"MEAN_MOTION_DDOT":0},{"OBJECT_NAME":"LAPAN-TUBSAT","OBJECT_ID":"2007-001A","EPOCH":"2026-03-06T19:54:22.842720","MEAN_MOTION":14.85827373,"ECCENTRICITY":0.0012621,"INCLINATION":98.1331,"RA_OF_ASC_NODE":62.765,"ARG_OF_PERICENTER":152.5848,"MEAN_ANOMALY":207.6035,"EPHEMERIS_TYPE":0,"CLASSIFICATION_TYPE":"U","NORAD_CAT_ID":29709,"ELEMENT_SET_NO":999,"REV_AT_EPOCH":3595,"BSTAR":0.00013623,"MEAN_MOTION_DOT":1.129e-5,"MEAN_MOTION_DDOT":0},{"OBJECT_NAME":"HAIYANG-1B","OBJECT_ID":"2007-010A","EPOCH":"2026-03-06T10:20:58.083648","MEAN_MOTION":14.30998233,"ECCENTRICITY":0.00141592,"INCLINATION":98.3426,"RA_OF_ASC_NODE":51.3029,"ARG_OF_PERICENTER":141.8438,"MEAN_ANOMALY":218.3751,"EPHEMERIS_TYPE":0,"CLASSIFICATION_TYPE":"U","NORAD_CAT_ID":31113,"ELEMENT_SET_NO":999,"REV_AT_EPOCH":98593,"BSTAR":7.6994616e-5,"MEAN_MOTION_DOT":1.61e-6,"MEAN_MOTION_DDOT":0},{"OBJECT_NAME":"BEIDOU-2 M1","OBJECT_ID":"2007-011A","EPOCH":"2026-03-01T16:29:11.417280","MEAN_MOTION":1.77349244,"ECCENTRICITY":0.00024675,"INCLINATION":50.9713,"RA_OF_ASC_NODE":222.849,"ARG_OF_PERICENTER":35.1806,"MEAN_ANOMALY":324.7821,"EPHEMERIS_TYPE":0,"CLASSIFICATION_TYPE":"U","NORAD_CAT_ID":31115,"ELEMENT_SET_NO":999,"REV_AT_EPOCH":7424,"BSTAR":0,"MEAN_MOTION_DOT":5.0e-8,"MEAN_MOTION_DDOT":0},{"OBJECT_NAME":"CAPE-1","OBJECT_ID":"2007-012P","EPOCH":"2026-03-06T20:08:31.751232","MEAN_MOTION":14.64568291,"ECCENTRICITY":0.0084745,"INCLINATION":98.4369,"RA_OF_ASC_NODE":37.6683,"ARG_OF_PERICENTER":31.4458,"MEAN_ANOMALY":329.1771,"EPHEMERIS_TYPE":0,"CLASSIFICATION_TYPE":"U","NORAD_CAT_ID":31130,"ELEMENT_SET_NO":999,"REV_AT_EPOCH":337,"BSTAR":0.00060569,"MEAN_MOTION_DOT":3.334e-5,"MEAN_MOTION_DDOT":0},{"OBJECT_NAME":"CBERS 2B","OBJECT_ID":"2007-042A","EPOCH":"2026-03-06T09:05:29.128704","MEAN_MOTION":14.41414711,"ECCENTRICITY":0.00298776,"INCLINATION":98.3825,"RA_OF_ASC_NODE":11.8837,"ARG_OF_PERICENTER":285.1718,"MEAN_ANOMALY":186.7549,"EPHEMERIS_TYPE":0,"CLASSIFICATION_TYPE":"U","NORAD_CAT_ID":32062,"ELEMENT_SET_NO":999,"REV_AT_EPOCH":96987,"BSTAR":0.00015502198,"MEAN_MOTION_DOT":4.62e-6,"MEAN_MOTION_DDOT":0},{"OBJECT_NAME":"COSMO-SKYMED 2","OBJECT_ID":"2007-059A","EPOCH":"2026-03-06T19:33:42.239808","MEAN_MOTION":14.82161869,"ECCENTRICITY":0.0001293,"INCLINATION":97.8862,"RA_OF_ASC_NODE":250.8927,"ARG_OF_PERICENTER":83.4319,"MEAN_ANOMALY":276.7042,"EPHEMERIS_TYPE":0,"CLASSIFICATION_TYPE":"U","NORAD_CAT_ID":32376,"ELEMENT_SET_NO":999,"REV_AT_EPOCH":98683,"BSTAR":0.00010923,"MEAN_MOTION_DOT":8.18e-6,"MEAN_MOTION_DDOT":0},{"OBJECT_NAME":"CARTOSAT-2A","OBJECT_ID":"2008-021A","EPOCH":"2026-03-06T19:58:28.344000","MEAN_MOTION":14.7909409,"ECCENTRICITY":0.0013299,"INCLINATION":97.7778,"RA_OF_ASC_NODE":117.9746,"ARG_OF_PERICENTER":84.9445,"MEAN_ANOMALY":275.3285,"EPHEMERIS_TYPE":0,"CLASSIFICATION_TYPE":"U","NORAD_CAT_ID":32783,"ELEMENT_SET_NO":999,"REV_AT_EPOCH":96367,"BSTAR":0.00015028,"MEAN_MOTION_DOT":1.064e-5,"MEAN_MOTION_DDOT":0},{"OBJECT_NAME":"CUTE-1.7+APD II (CO-65)","OBJECT_ID":"2008-021C","EPOCH":"2026-03-06T20:39:47.163456","MEAN_MOTION":15.08325396,"ECCENTRICITY":0.0010038,"INCLINATION":97.8209,"RA_OF_ASC_NODE":45.2818,"ARG_OF_PERICENTER":28.8695,"MEAN_ANOMALY":331.3086,"EPHEMERIS_TYPE":0,"CLASSIFICATION_TYPE":"U","NORAD_CAT_ID":32785,"ELEMENT_SET_NO":999,"REV_AT_EPOCH":96976,"BSTAR":0.00060286,"MEAN_MOTION_DOT":9.307e-5,"MEAN_MOTION_DDOT":0},{"OBJECT_NAME":"SEEDS II (CO-66)","OBJECT_ID":"2008-021J","EPOCH":"2026-03-06T10:51:42.359904","MEAN_MOTION":15.28908488,"ECCENTRICITY":0.00019698,"INCLINATION":97.752,"RA_OF_ASC_NODE":58.7481,"ARG_OF_PERICENTER":9.7725,"MEAN_ANOMALY":350.3551,"EPHEMERIS_TYPE":0,"CLASSIFICATION_TYPE":"U","NORAD_CAT_ID":32791,"ELEMENT_SET_NO":999,"REV_AT_EPOCH":97157,"BSTAR":0.00085099035,"MEAN_MOTION_DOT":0.00023871,"MEAN_MOTION_DDOT":0},{"OBJECT_NAME":"YUBILEINY (RS30)","OBJECT_ID":"2008-025A","EPOCH":"2026-03-06T21:23:11.485824","MEAN_MOTION":12.43176073,"ECCENTRICITY":0.0019426,"INCLINATION":82.4989,"RA_OF_ASC_NODE":59.0637,"ARG_OF_PERICENTER":171.344,"MEAN_ANOMALY":188.7979,"EPHEMERIS_TYPE":0,"CLASSIFICATION_TYPE":"U","NORAD_CAT_ID":32953,"ELEMENT_SET_NO":999,"REV_AT_EPOCH":80698,"BSTAR":0.00020613,"MEAN_MOTION_DOT":3.9e-7,"MEAN_MOTION_DDOT":0}]
